
# Worst residual: 12.62 km
# MJD 60761.000000 (2025 Mar 27  0:00)
1964-040A = NORAD 00836 = Vela II-A
1 00836U 64040A   25086.49919926  .00000000  00000-0  00000-0 0 25483
2 00836 050.6121 127.8791 4636442 294.0417 080.9596 00.23917363    06

# Worst residual: 3.32 km
# MJD 60762.000000 (2025 Mar 28  0:00)
1964-040A = NORAD 00836 = Vela II-A
1 00836U 64040A   25087.49919926  .00000000  00000-0  00000-0 0 25484
2 00836 050.6202 127.8474 4640890 294.0471 167.0022 00.23909985    08

# Worst residual: 5.18 km
# MJD 60763.000000 (2025 Mar 29  0:00)
1964-040A = NORAD 00836 = Vela II-A
1 00836U 64040A   25088.49919926  .00000000  00000-0  00000-0 0 25485
2 00836 050.6374 127.8070 4648230 294.0033 253.2677 00.23926459    09

# Worst residual: 25.21 km
# MJD 60764.000000 (2025 Mar 30  0:00)
1964-040A = NORAD 00836 = Vela II-A
1 00836U 64040A   25089.49919926  .00000000  00000-0  00000-0 0 25486
2 00836 050.6678 127.7884 4642208 294.0190 339.4165 00.23970027    00

# Worst residual: 24.38 km
# MJD 60765.000000 (2025 Mar 31  0:00)
1964-040A = NORAD 00836 = Vela II-A
1 00836U 64040A   25090.49919926  .00000000  00000-0  00000-0 0 25488
2 00836 050.6522 127.7837 4646236 293.7882 065.8322 00.23976038    08

# Worst residual: 8.14 km
# MJD 60766.000000 (2025 Apr  1  0:00)
1964-040A = NORAD 00836 = Vela II-A
1 00836U 64040A   25091.49919926  .00000000  00000-0  00000-0 0 25489
2 00836 050.6541 127.7195 4650250 293.9510 151.7440 00.23923897    08

# Worst residual: 7.85 km
# MJD 60767.000000 (2025 Apr  2  0:00)
1964-040A = NORAD 00836 = Vela II-A
1 00836U 64040A   25092.49919926  .00000000  00000-0  00000-0 0 25480
2 00836 050.6750 127.6628 4648586 294.0097 237.7615 00.23923707    00

# Worst residual: 17.36 km
# MJD 60768.000000 (2025 Apr  3  0:00)
1964-040A = NORAD 00836 = Vela II-A
1 00836U 64040A   25093.49919926  .00000000  00000-0  00000-0 0 25481
2 00836 050.7000 127.6348 4638775 294.0723 323.7734 00.23970557    06

# Worst residual: 20.26 km
# MJD 60769.000000 (2025 Apr  4  0:00)
1964-040A = NORAD 00836 = Vela II-A
1 00836U 64040A   25094.49919926  .00000000  00000-0  00000-0 0 25482
2 00836 050.6995 127.6349 4641816 293.8759 050.1274 00.23944993    00

# Worst residual: 3.99 km
# MJD 60770.000000 (2025 Apr  5  0:00)
1964-040A = NORAD 00836 = Vela II-A
1 00836U 64040A   25095.49919926  .00000000  00000-0  00000-0 0 25483
2 00836 050.7042 127.6053 4642379 293.9014 136.2472 00.23916947    00

# Worst residual: 3.43 km
# MJD 60771.000000 (2025 Apr  6  0:00)
1964-040A = NORAD 00836 = Vela II-A
1 00836U 64040A   25096.49919926  .00000000  00000-0  00000-0 0 25484
2 00836 050.7117 127.5799 4636731 293.8065 222.5512 00.23904653    04

# Worst residual: 13.24 km
# MJD 60772.000000 (2025 Apr  7  0:00)
1964-040A = NORAD 00836 = Vela II-A
1 00836U 64040A   25097.49919926  .00000000  00000-0  00000-0 0 25485
2 00836 050.7167 127.5604 4634812 293.7917 308.6518 00.23917375    04

# Worst residual: 16.31 km
# MJD 60773.000000 (2025 Apr  8  0:00)
1964-040A = NORAD 00836 = Vela II-A
1 00836U 64040A   25098.49919926  .00000000  00000-0  00000-0 0 25486
2 00836 050.7237 127.5498 4629639 293.7306 034.8798 00.23949349    00

# Worst residual: 2.00 km
# MJD 60774.000000 (2025 Apr  9  0:00)
1964-040A = NORAD 00836 = Vela II-A
1 00836U 64040A   25099.49919926  .00000000  00000-0  00000-0 0 25487
2 00836 050.7247 127.5146 4638828 293.7372 120.9317 00.23914776    04

# Worst residual: 4.62 km
# MJD 60775.000000 (2025 Apr 10  0:00)
1964-040A = NORAD 00836 = Vela II-A
1 00836U 64040A   25100.49919926  .00000000  00000-0  00000-0 0 25480
2 00836 050.7285 127.5031 4636693 293.6305 207.2537 00.23913930    06

# Worst residual: 7.67 km
# MJD 60776.000000 (2025 Apr 11  0:00)
1964-040A = NORAD 00836 = Vela II-A
1 00836U 64040A   25101.49919926  .00000000  00000-0  00000-0 0 25481
2 00836 050.7283 127.4907 4636422 293.5594 293.4762 00.23911374    01

# Worst residual: 21.08 km
# MJD 60777.000000 (2025 Apr 12  0:00)
1964-040A = NORAD 00836 = Vela II-A
1 00836U 64040A   25102.49919926  .00000000  00000-0  00000-0 0 25482
2 00836 050.7458 127.4993 4625801 293.4631 019.6890 00.23970526    04

# Worst residual: 6.16 km
# MJD 60778.000000 (2025 Apr 13  0:00)
1964-040A = NORAD 00836 = Vela II-A
1 00836U 64040A   25103.49919926  .00000000  00000-0  00000-0 0 25483
2 00836 050.7375 127.4640 4634177 293.4402 105.8649 00.23937820    03

# Worst residual: 1.02 km
# MJD 60779.000000 (2025 Apr 14  0:00)
1964-040A = NORAD 00836 = Vela II-A
1 00836U 64040A   25104.49919926  .00000000  00000-0  00000-0 0 25484
2 00836 050.7436 127.4432 4632522 293.4392 192.0198 00.23926836    02

# Worst residual: 7.25 km
# MJD 60780.000000 (2025 Apr 15  0:00)
1964-040A = NORAD 00836 = Vela II-A
1 00836U 64040A   25105.49919926  .00000000  00000-0  00000-0 0 25485
2 00836 050.7445 127.4301 4634017 293.4290 278.2012 00.23939045    03

# Worst residual: 25.80 km
# MJD 60781.000000 (2025 Apr 16  0:00)
1964-040A = NORAD 00836 = Vela II-A
1 00836U 64040A   25106.49919926  .00000000  00000-0  00000-0 0 25486
2 00836 050.7663 127.4322 4625919 293.3109 004.4572 00.23960243    01

# Worst residual: 6.77 km
# MJD 60782.000000 (2025 Apr 17  0:00)
1964-040A = NORAD 00836 = Vela II-A
1 00836U 64040A   25107.49919926  .00000000  00000-0  00000-0 0 25487
2 00836 050.7491 127.4109 4634440 293.2306 090.6561 00.23928858    01

# Worst residual: 3.03 km
# MJD 60783.000000 (2025 Apr 18  0:00)
1964-040A = NORAD 00836 = Vela II-A
1 00836U 64040A   25108.49919926  .00000000  00000-0  00000-0 0 25488
2 00836 050.7550 127.4053 4634142 293.1982 176.8320 00.23921850    08

# Worst residual: 5.09 km
# MJD 60784.000000 (2025 Apr 19  0:00)
1964-040A = NORAD 00836 = Vela II-A
1 00836U 64040A   25109.49919926  .00000000  00000-0  00000-0 0 25489
2 00836 050.7626 127.3855 4634832 293.1346 263.0881 00.23922713    01

# Worst residual: 17.61 km
# MJD 60785.000000 (2025 Apr 20  0:00)
1964-040A = NORAD 00836 = Vela II-A
1 00836U 64040A   25110.49919926  .00000000  00000-0  00000-0 0 25481
2 00836 050.7930 127.3673 4624294 293.1131 349.2174 00.23966086    03

# Worst residual: 8.83 km
# MJD 60786.000000 (2025 Apr 21  0:00)
1964-040A = NORAD 00836 = Vela II-A
1 00836U 64040A   25111.49919926  .00000000  00000-0  00000-0 0 25482
2 00836 050.7880 127.3516 4632967 293.0620 075.3987 00.23914355    02

# Worst residual: 5.52 km
# MJD 60787.000000 (2025 Apr 22  0:00)
1964-040A = NORAD 00836 = Vela II-A
1 00836U 64040A   25112.49919926  .00000000  00000-0  00000-0 0 25483
2 00836 050.7949 127.3349 4634509 293.0282 161.5302 00.23909466    06

# Worst residual: 6.78 km
# MJD 60788.000000 (2025 Apr 23  0:00)
1964-040A = NORAD 00836 = Vela II-A
1 00836U 64040A   25113.49919926  .00000000  00000-0  00000-0 0 25484
2 00836 050.7992 127.3186 4640120 292.9114 247.8988 00.23917390    04
